start=new Date('2022-12-14T00:00:00.000Z').valueOf();
sats=[{"PERIAPSIS":"570.128","MEAN_MOTION_DDOT":"0.0000000000000","MEAN_MOTION":"14.98334185","MEAN_ANOMALY":"97.0527","CLASSIFICATION_TYPE":"U","ELEMENT_SET_NO":"999","OBJECT_TYPE":"PAYLOAD","LAUNCH_DATE":"2021-09-14","FILE":"3697190","APOAPSIS":"573.962","DECAY_DATE":null,"MEAN_MOTION_DOT":"-0.00000933","REF_FRAME":"TEME","INCLINATION":"70.0023","CENTER_NAME":"EARTH","RCS_SIZE":"LARGE","EPHEMERIS_TYPE":"0","TLE_LINE2":"2 49168  70.0023  15.1476 0002758 263.0318  97.0527 14.98334185 70598","PERIOD":"96.107","RA_OF_ASC_NODE":"15.1476","TLE_LINE1":"1 49168U 21082AQ  22347.50886028 -.00000933  00000-0 -70417-4 0  9996","EPOCH":"2022-12-13T12:12:45.528192","ECCENTRICITY":"0.00027580","SEMIMAJOR_AXIS":"6950.180","OBJECT_NAME":"STARLINK-3101","MEAN_ELEMENT_THEORY":"SGP4","BSTAR":"-0.00007041700000","COUNTRY_CODE":"US","REV_AT_EPOCH":"7059","OBJECT_ID":"2021-082AQ","TIME_SYSTEM":"UTC","ARG_OF_PERICENTER":"263.0318","NORAD_CAT_ID":"49168","GP_ID":"220277357","SITE":"AFWTR"},{"MEAN_ELEMENT_THEORY":"SGP4","BSTAR":"0.00005752400000","COUNTRY_CODE":"US","REV_AT_EPOCH":"6943","OBJECT_ID":"2021-082AR","ARG_OF_PERICENTER":"266.3952","TIME_SYSTEM":"UTC","NORAD_CAT_ID":"49169","GP_ID":"220320876","SITE":"AFWTR","PERIOD":"96.107","RA_OF_ASC_NODE":"14.4670","TLE_LINE1":"1 49169U 21082AR  22347.78066520  .00000593  00000-0  57524-4 0  9998","EPOCH":"2022-12-13T18:44:09.473280","ECCENTRICITY":"0.00028020","SEMIMAJOR_AXIS":"6950.194","OBJECT_NAME":"STARLINK-3046","FILE":"3698003","APOAPSIS":"574.007","DECAY_DATE":null,"MEAN_MOTION_DOT":"0.00000593","REF_FRAME":"TEME","INCLINATION":"70.0022","CENTER_NAME":"EARTH","RCS_SIZE":"LARGE","EPHEMERIS_TYPE":"0","TLE_LINE2":"2 49169  70.0022  14.4670 0002802 266.3952  93.6886 14.98329482 69431","PERIAPSIS":"570.112","MEAN_MOTION":"14.98329482","MEAN_MOTION_DDOT":"0.0000000000000","CLASSIFICATION_TYPE":"U","MEAN_ANOMALY":"93.6886","OBJECT_TYPE":"PAYLOAD","ELEMENT_SET_NO":"999","LAUNCH_DATE":"2021-09-14"},{"OBJECT_ID":"2021-082AS","ARG_OF_PERICENTER":"261.9611","TIME_SYSTEM":"UTC","COUNTRY_CODE":"US","REV_AT_EPOCH":"6888","SITE":"AFWTR","GP_ID":"220277846","NORAD_CAT_ID":"49170","BSTAR":"0.00002298600000","MEAN_ELEMENT_THEORY":"SGP4","ECCENTRICITY":"0.00031350","EPOCH":"2022-12-13T09:16:13.313280","OBJECT_NAME":"STARLINK-3074","SEMIMAJOR_AXIS":"6950.169","TLE_LINE1":"1 49170U 21082AS  22347.38626520  .00000181  00000-0  22986-4 0  9995","PERIOD":"96.107","RA_OF_ASC_NODE":"35.4568","RCS_SIZE":"LARGE","CENTER_NAME":"EARTH","EPHEMERIS_TYPE":"0","INCLINATION":"70.0007","TLE_LINE2":"2 49170  70.0007  35.4568 0003135 261.9611  98.1192 14.98337762 68886","APOAPSIS":"574.213","FILE":"3697190","DECAY_DATE":null,"MEAN_MOTION_DOT":"0.00000181","REF_FRAME":"TEME","LAUNCH_DATE":"2021-09-14","MEAN_MOTION":"14.98337762","MEAN_MOTION_DDOT":"0.0000000000000","PERIAPSIS":"569.855","OBJECT_TYPE":"PAYLOAD","ELEMENT_SET_NO":"999","MEAN_ANOMALY":"98.1192","CLASSIFICATION_TYPE":"U"},{"RA_OF_ASC_NODE":"35.3998","PERIOD":"96.106","TLE_LINE1":"1 49171U 21082AT  22347.40534921  .00001830  00000-0  16111-3 0  9996","EPOCH":"2022-12-13T09:43:42.171744","ECCENTRICITY":"0.00026140","SEMIMAJOR_AXIS":"6950.164","OBJECT_NAME":"STARLINK-3107","MEAN_ELEMENT_THEORY":"SGP4","BSTAR":"0.00016111000000","COUNTRY_CODE":"US","REV_AT_EPOCH":"7004","OBJECT_ID":"2021-082AT","ARG_OF_PERICENTER":"253.7067","TIME_SYSTEM":"UTC","GP_ID":"220278359","NORAD_CAT_ID":"49171","SITE":"AFWTR","PERIAPSIS":"570.212","MEAN_MOTION":"14.98339504","MEAN_MOTION_DDOT":"0.0000000000000","CLASSIFICATION_TYPE":"U","MEAN_ANOMALY":"106.3804","ELEMENT_SET_NO":"999","OBJECT_TYPE":"PAYLOAD","LAUNCH_DATE":"2021-09-14","FILE":"3697190","APOAPSIS":"573.845","DECAY_DATE":null,"MEAN_MOTION_DOT":"0.00001830","REF_FRAME":"TEME","INCLINATION":"69.9996","RCS_SIZE":"LARGE","CENTER_NAME":"EARTH","EPHEMERIS_TYPE":"0","TLE_LINE2":"2 49171  69.9996  35.3998 0002614 253.7067 106.3804 14.98339504 70041"},{"LAUNCH_DATE":"2021-09-14","MEAN_MOTION_DDOT":"0.0000000000000","MEAN_MOTION":"14.98344704","PERIAPSIS":"569.865","OBJECT_TYPE":"PAYLOAD","ELEMENT_SET_NO":"999","CLASSIFICATION_TYPE":"U","MEAN_ANOMALY":"80.5485","CENTER_NAME":"EARTH","RCS_SIZE":"LARGE","EPHEMERIS_TYPE":"0","INCLINATION":"70.0014","TLE_LINE2":"2 49172  70.0014  15.2141 0003090 279.5325  80.5485 14.98344704 69386","APOAPSIS":"574.160","FILE":"3697190","DECAY_DATE":null,"MEAN_MOTION_DOT":"0.00001574","REF_FRAME":"TEME","ECCENTRICITY":"0.00030900","EPOCH":"2022-12-13T11:35:28.087872","OBJECT_NAME":"STARLINK-3091","SEMIMAJOR_AXIS":"6950.147","TLE_LINE1":"1 49172U 21082AU  22347.48296398  .00001574  00000-0  13965-3 0  9997","RA_OF_ASC_NODE":"15.2141","PERIOD":"96.106","OBJECT_ID":"2021-082AU","ARG_OF_PERICENTER":"279.5325","TIME_SYSTEM":"UTC","COUNTRY_CODE":"US","REV_AT_EPOCH":"6938","SITE":"AFWTR","GP_ID":"220278609","NORAD_CAT_ID":"49172","BSTAR":"0.00013965000000","MEAN_ELEMENT_THEORY":"SGP4"},{"FILE":"3698003","APOAPSIS":"574.247","MEAN_MOTION_DOT":"-0.00004871","REF_FRAME":"TEME","DECAY_DATE":null,"INCLINATION":"70.0020","EPHEMERIS_TYPE":"0","RCS_SIZE":"LARGE","CENTER_NAME":"EARTH","TLE_LINE2":"2 49173  70.0020  14.8229 0003114 278.8073  81.2733 14.98321873 69415","PERIAPSIS":"569.919","MEAN_MOTION":"14.98321873","MEAN_MOTION_DDOT":"0.0000000000000","MEAN_ANOMALY":"81.2733","CLASSIFICATION_TYPE":"U","ELEMENT_SET_NO":"999","OBJECT_TYPE":"PAYLOAD","LAUNCH_DATE":"2021-09-14","MEAN_ELEMENT_THEORY":"SGP4","BSTAR":"-0.00040080000000","REV_AT_EPOCH":"6941","COUNTRY_CODE":"US","ARG_OF_PERICENTER":"278.8073","TIME_SYSTEM":"UTC","OBJECT_ID":"2021-082AV","GP_ID":"220320376","NORAD_CAT_ID":"49173","SITE":"AFWTR","PERIOD":"96.108","RA_OF_ASC_NODE":"14.8229","TLE_LINE1":"1 49173U 21082AV  22347.63760216 -.00004871  00000-0 -40080-3 0  9993","EPOCH":"2022-12-13T15:18:08.826624","ECCENTRICITY":"0.00031140","SEMIMAJOR_AXIS":"6950.218","OBJECT_NAME":"STARLINK-3045"},{"GP_ID":"220321628","NORAD_CAT_ID":"49174","SITE":"AFWTR","REV_AT_EPOCH":"7057","COUNTRY_CODE":"US","ARG_OF_PERICENTER":"287.2601","TIME_SYSTEM":"UTC","OBJECT_ID":"2021-082AW","MEAN_ELEMENT_THEORY":"SGP4","BSTAR":"0.00037347000000","SEMIMAJOR_AXIS":"6950.538","OBJECT_NAME":"STARLINK-3047","EPOCH":"2022-12-13T14:37:16.884480","ECCENTRICITY":"0.00046260","PERIOD":"96.114","RA_OF_ASC_NODE":"15.1136","TLE_LINE1":"1 49174U 21082AW  22347.60922320  .00004354  00000-0  37347-3 0  9993","TLE_LINE2":"2 49174  70.0005  15.1136 0004626 287.2601  72.8051 14.98218439 70571","INCLINATION":"70.0005","EPHEMERIS_TYPE":"0","RCS_SIZE":"LARGE","CENTER_NAME":"EARTH","MEAN_MOTION_DOT":"0.00004354","REF_FRAME":"TEME","DECAY_DATE":null,"FILE":"3698003","APOAPSIS":"575.618","LAUNCH_DATE":"2021-09-14","CLASSIFICATION_TYPE":"U","MEAN_ANOMALY":"72.8051","OBJECT_TYPE":"PAYLOAD","ELEMENT_SET_NO":"999","PERIAPSIS":"569.188","MEAN_MOTION_DDOT":"0.0000000000000","MEAN_MOTION":"14.98218439"},{"CLASSIFICATION_TYPE":"U","MEAN_ANOMALY":"92.8717","OBJECT_TYPE":"PAYLOAD","ELEMENT_SET_NO":"999","PERIAPSIS":"569.972","MEAN_MOTION_DDOT":"0.0000000000000","MEAN_MOTION":"14.98344521","LAUNCH_DATE":"2021-09-14","MEAN_MOTION_DOT":"0.00005818","REF_FRAME":"TEME","DECAY_DATE":null,"FILE":"3698003","APOAPSIS":"574.054","TLE_LINE2":"2 49175  70.0016  14.4255 0002937 267.2106  92.8717 14.98344521 69435","INCLINATION":"70.0016","EPHEMERIS_TYPE":"0","CENTER_NAME":"EARTH","RCS_SIZE":"LARGE","PERIOD":"96.106","RA_OF_ASC_NODE":"14.4255","TLE_LINE1":"1 49175U 21082AX  22347.79769895  .00005818  00000-0  49483-3 0  9990","SEMIMAJOR_AXIS":"6950.148","OBJECT_NAME":"STARLINK-3087","EPOCH":"2022-12-13T19:08:41.189280","ECCENTRICITY":"0.00029370","MEAN_ELEMENT_THEORY":"SGP4","BSTAR":"0.00049483000000","GP_ID":"220321371","NORAD_CAT_ID":"49175","SITE":"AFWTR","REV_AT_EPOCH":"6943","COUNTRY_CODE":"US","TIME_SYSTEM":"UTC","ARG_OF_PERICENTER":"267.2106","OBJECT_ID":"2021-082AX"},{"EPOCH":"2022-12-13T10:52:15.579840","ECCENTRICITY":"0.00031660","SEMIMAJOR_AXIS":"6950.210","OBJECT_NAME":"STARLINK-3069","RA_OF_ASC_NODE":"355.2973","PERIOD":"96.107","TLE_LINE1":"1 49176U 21082AY  22347.45295810 -.00000332  00000-0 -20011-4 0  9990","REV_AT_EPOCH":"6987","COUNTRY_CODE":"US","TIME_SYSTEM":"UTC","ARG_OF_PERICENTER":"287.9204","OBJECT_ID":"2021-082AY","GP_ID":"220278111","NORAD_CAT_ID":"49176","SITE":"AFWTR","MEAN_ELEMENT_THEORY":"SGP4","BSTAR":"-0.00002001100000","LAUNCH_DATE":"2021-09-14","PERIAPSIS":"569.875","MEAN_MOTION":"14.98324426","MEAN_MOTION_DDOT":"0.0000000000000","CLASSIFICATION_TYPE":"U","MEAN_ANOMALY":"72.1610","OBJECT_TYPE":"PAYLOAD","ELEMENT_SET_NO":"999","INCLINATION":"70.0007","EPHEMERIS_TYPE":"0","RCS_SIZE":"LARGE","CENTER_NAME":"EARTH","TLE_LINE2":"2 49176  70.0007 355.2973 0003166 287.9204  72.1610 14.98324426 69875","FILE":"3697190","APOAPSIS":"574.276","MEAN_MOTION_DOT":"-0.00000332","REF_FRAME":"TEME","DECAY_DATE":null},{"RA_OF_ASC_NODE":"354.5774","PERIOD":"96.107","TLE_LINE1":"1 49177U 21082AZ  22347.73907636 -.00001024  00000-0 -78017-4 0  9996","SEMIMAJOR_AXIS":"6950.214","OBJECT_NAME":"STARLINK-3103","EPOCH":"2022-12-13T17:44:16.197504","ECCENTRICITY":"0.00031690","MEAN_ELEMENT_THEORY":"SGP4","BSTAR":"-0.00007801700000","GP_ID":"220320877","NORAD_CAT_ID":"49177","SITE":"AFWTR","COUNTRY_CODE":"US","REV_AT_EPOCH":"7111","OBJECT_ID":"2021-082AZ","ARG_OF_PERICENTER":"279.3818","TIME_SYSTEM":"UTC","MEAN_ANOMALY":"80.6983","CLASSIFICATION_TYPE":"U","OBJECT_TYPE":"PAYLOAD","ELEMENT_SET_NO":"999","PERIAPSIS":"569.876","MEAN_MOTION_DDOT":"0.0000000000000","MEAN_MOTION":"14.98323168","LAUNCH_DATE":"2021-09-14","DECAY_DATE":null,"MEAN_MOTION_DOT":"-0.00001024","REF_FRAME":"TEME","FILE":"3698003","APOAPSIS":"574.282","TLE_LINE2":"2 49177  70.0009 354.5774 0003169 279.3818  80.6983 14.98323168 71117","INCLINATION":"70.0009","RCS_SIZE":"LARGE","CENTER_NAME":"EARTH","EPHEMERIS_TYPE":"0"}];
